{"type": "FeatureCollection", "features": [ {"type": "Feature", "properties": {"norad_id": 40664, "name": "SKY MEXICO-1", "group": "intelsat", "lat": -0.030893870112597963, "lon": -15.22327144926673, "alt_km": 35781.66670003514, "timestamp": "2025-12-14T22:38:40.427229+00:00", "meta": {"OBJECT_NAME": "SKY MEXICO-1", "OBJECT_ID": "2015-026B", "EPOCH": "2025-12-14T06:11:46.466016", "MEAN_MOTION": 1.00272081, "ECCENTRICITY": 0.00024768, "INCLINATION": 0.0405, "RA_OF_ASC_NODE": 81.3311, "ARG_OF_PERICENTER": 198.4179, "MEAN_ANOMALY": 177.6111, "EPHEMERIS_TYPE": 0, "CLASSIFICATION_TYPE": "U", "NORAD_CAT_ID": 40664, "ELEMENT_SET_NO": 999, "REV_AT_EPOCH": 3860, "BSTAR": 0, "MEAN_MOTION_DOT": -2.17e-06, "MEAN_MOTION_DDOT": 0}, "tle": {"line1": "1 40664U 15026B   25348.25817669 -.00000217  00000+0  00000+0 0  9999", "line2": "2 40664   0.0405  81.3311 0002476 198.4179 177.6111  1.00272081 38608"}}, "geometry": {"type": "Point", "coordinates": [-15.22327144926673, -0.030893870112597963]}}, {"type": "Feature", "properties": {"norad_id": 40874, "name": "INTELSAT 34 (IS-34)", "group": "intelsat", "lat": 0.022460904954781206, "lon": 8.010329133194709, "alt_km": 35788.162705133305, "timestamp": "2025-12-14T22:38:40.427240+00:00", "meta": {"OBJECT_NAME": "INTELSAT 34 (IS-34)", "OBJECT_ID": "2015-039A", "EPOCH": "2025-12-14T06:18:23.332320", "MEAN_MOTION": 1.00272082, "ECCENTRICITY": 5.895e-05, "INCLINATION": 0.0131, "RA_OF_ASC_NODE": 321.2524, "ARG_OF_PERICENTER": 194.4725, "MEAN_ANOMALY": 326.5566, "EPHEMERIS_TYPE": 0, "CLASSIFICATION_TYPE": "U", "NORAD_CAT_ID": 40874, "ELEMENT_SET_NO": 999, "REV_AT_EPOCH": 3777, "BSTAR": 0, "MEAN_MOTION_DOT": -2.68e-06, "MEAN_MOTION_DDOT": 0}, "tle": {"line1": "1 40874U 15039A   25348.26277005 -.00000268  00000+0  00000+0 0  9997", "line2": "2 40874   0.0131 321.2524 0000589 194.4725 326.5566  1.00272082 37772"}}, "geometry": {"type": "Point", "coordinates": [8.010329133194709, 0.022460904954781206]}}, {"type": "Feature", "properties": {"norad_id": 41581, "name": "INTELSAT 31 (IS-31)", "group": "intelsat", "lat": 0.01360380244071817, "lon": -31.518366592872347, "alt_km": 35789.54140015186, "timestamp": "2025-12-14T22:38:40.427252+00:00", "meta": {"OBJECT_NAME": "INTELSAT 31 (IS-31)", "OBJECT_ID": "2016-035A", "EPOCH": "2025-12-14T02:41:36.595104", "MEAN_MOTION": 1.00272578, "ECCENTRICITY": 0.00019083, "INCLINATION": 0.0192, "RA_OF_ASC_NODE": 270.6187, "ARG_OF_PERICENTER": 300.5753, "MEAN_ANOMALY": 177.1907, "EPHEMERIS_TYPE": 0, "CLASSIFICATION_TYPE": "U", "NORAD_CAT_ID": 41581, "ELEMENT_SET_NO": 999, "REV_AT_EPOCH": 3482, "BSTAR": 0, "MEAN_MOTION_DOT": -1.34e-06, "MEAN_MOTION_DDOT": 0}, "tle": {"line1": "1 41581U 16035A   25348.11222911 -.00000134  00000+0  00000+0 0  9992", "line2": "2 41581   0.0192 270.6187 0001908 300.5753 177.1907  1.00272578 34826"}}, "geometry": {"type": "Point", "coordinates": [-31.518366592872347, 0.01360380244071817]}}, {"type": "Feature", "properties": {"norad_id": 41747, "name": "INTELSAT 36 (IS-36)", "group": "intelsat", "lat": 0.01793806693840162, "lon": 132.0028279437151, "alt_km": 35791.36366688056, "timestamp": "2025-12-14T22:38:40.427264+00:00", "meta": {"OBJECT_NAME": "INTELSAT 36 (IS-36)", "OBJECT_ID": "2016-053A", "EPOCH": "2025-12-14T05:10:52.299840", "MEAN_MOTION": 1.00271084, "ECCENTRICITY": 0.00012451, "INCLINATION": 0.0113, "RA_OF_ASC_NODE": 355.5011, "ARG_OF_PERICENTER": 329.0243, "MEAN_ANOMALY": 264.8185, "EPHEMERIS_TYPE": 0, "CLASSIFICATION_TYPE": "U", "NORAD_CAT_ID": 41747, "ELEMENT_SET_NO": 999, "REV_AT_EPOCH": 3409, "BSTAR": 0, "MEAN_MOTION_DOT": -7e-08, "MEAN_MOTION_DDOT": 0}, "tle": {"line1": "1 41747U 16053A   25348.21588310 -.00000007  00000+0  00000+0 0  9994", "line2": "2 41747   0.0113 355.5011 0001245 329.0243 264.8185  1.00271084 34098"}}, "geometry": {"type": "Point", "coordinates": [132.0028279437151, 0.01793806693840162]}}, {"type": "Feature", "properties": {"norad_id": 41945, "name": "INTELSAT 32E (IS-32E)", "group": "intelsat", "lat": -0.009245601263163065, "lon": 20.329344596589305, "alt_km": 35784.07750669156, "timestamp": "2025-12-14T22:38:40.427275+00:00", "meta": {"OBJECT_NAME": "INTELSAT 32E (IS-32E)", "OBJECT_ID": "2017-007B", "EPOCH": "2025-12-14T04:39:10.335168", "MEAN_MOTION": 1.00271461, "ECCENTRICITY": 5.177e-05, "INCLINATION": 0.0343, "RA_OF_ASC_NODE": 82.1213, "ARG_OF_PERICENTER": 296.656, "MEAN_ANOMALY": 90.9489, "EPHEMERIS_TYPE": 0, "CLASSIFICATION_TYPE": "U", "NORAD_CAT_ID": 41945, "ELEMENT_SET_NO": 999, "REV_AT_EPOCH": 3237, "BSTAR": 0, "MEAN_MOTION_DOT": -2.51e-06, "MEAN_MOTION_DDOT": 0}, "tle": {"line1": "1 41945U 17007B   25348.19386962 -.00000251  00000+0  00000+0 0  9991", "line2": "2 41945   0.0343  82.1213 0000517 296.6560  90.9489  1.00271461 32375"}}, "geometry": {"type": "Point", "coordinates": [20.329344596589305, -0.009245601263163065]}}, {"type": "Feature", "properties": {"norad_id": 42818, "name": "INTELSAT 35E (IS-35E)", "group": "intelsat", "lat": 0.03536531703358254, "lon": 29.041679557791745, "alt_km": 35789.55578588206, "timestamp": "2025-12-14T22:38:40.427287+00:00", "meta": {"OBJECT_NAME": "INTELSAT 35E (IS-35E)", "OBJECT_ID": "2017-041A", "EPOCH": "2025-12-14T06:24:22.758912", "MEAN_MOTION": 1.00275463, "ECCENTRICITY": 0.00021356, "INCLINATION": 0.0231, "RA_OF_ASC_NODE": 337.8472, "ARG_OF_PERICENTER": 291.7851, "MEAN_ANOMALY": 235.149, "EPHEMERIS_TYPE": 0, "CLASSIFICATION_TYPE": "U", "NORAD_CAT_ID": 42818, "ELEMENT_SET_NO": 999, "REV_AT_EPOCH": 3096, "BSTAR": 0, "MEAN_MOTION_DOT": 0, "MEAN_MOTION_DDOT": 0}, "tle": {"line1": "1 42818U 17041A   25348.26693008  .00000000  00000+0  00000+0 0  9990", "line2": "2 42818   0.0231 337.8472 0002135 291.7851 235.1490  1.00275463 30969"}}, "geometry": {"type": "Point", "coordinates": [29.041679557791745, 0.03536531703358254]}}, {"type": "Feature", "properties": {"norad_id": 42950, "name": "INTELSAT 37E (IS-37E)", "group": "intelsat", "lat": 0.0014646099262359995, "lon": 45.53872029334688, "alt_km": 35796.91967357999, "timestamp": "2025-12-14T22:38:40.427299+00:00", "meta": {"OBJECT_NAME": "INTELSAT 37E (IS-37E)", "OBJECT_ID": "2017-059A", "EPOCH": "2025-12-14T06:29:07.305216", "MEAN_MOTION": 1.00272141, "ECCENTRICITY": 0.00030233, "INCLINATION": 0.0037, "RA_OF_ASC_NODE": 73.3863, "ARG_OF_PERICENTER": 183.646, "MEAN_ANOMALY": 265.4459, "EPHEMERIS_TYPE": 0, "CLASSIFICATION_TYPE": "U", "NORAD_CAT_ID": 42950, "ELEMENT_SET_NO": 999, "REV_AT_EPOCH": 3021, "BSTAR": 0, "MEAN_MOTION_DOT": -1.23e-06, "MEAN_MOTION_DDOT": 0}, "tle": {"line1": "1 42950U 17059A   25348.27022344 -.00000123  00000+0  00000+0 0  9993", "line2": "2 42950   0.0037  73.3863 0003023 183.6460 265.4459  1.00272141 30217"}}, "geometry": {"type": "Point", "coordinates": [45.53872029334688, 0.0014646099262359995]}}, {"type": "Feature", "properties": {"norad_id": 43632, "name": "AZERSPACE 2 (IS-38)", "group": "intelsat", "lat": 0.026011668175956883, "lon": 108.62181604933218, "alt_km": 35791.1972118172, "timestamp": "2025-12-14T22:38:40.427310+00:00", "meta": {"OBJECT_NAME": "AZERSPACE 2 (IS-38)", "OBJECT_ID": "2018-074A", "EPOCH": "2025-12-14T06:46:58.095840", "MEAN_MOTION": 1.00270341, "ECCENTRICITY": 0.00012827, "INCLINATION": 0.0192, "RA_OF_ASC_NODE": 326.4422, "ARG_OF_PERICENTER": 294.2058, "MEAN_ANOMALY": 329.4162, "EPHEMERIS_TYPE": 0, "CLASSIFICATION_TYPE": "U", "NORAD_CAT_ID": 43632, "ELEMENT_SET_NO": 999, "REV_AT_EPOCH": 2659, "BSTAR": 0, "MEAN_MOTION_DOT": 1.54e-06, "MEAN_MOTION_DDOT": 0}, "tle": {"line1": "1 43632U 18074A   25348.28261685  .00000154  00000+0  00000+0 0  9996", "line2": "2 43632   0.0192 326.4422 0001282 294.2058 329.4162  1.00270341 26595"}}, "geometry": {"type": "Point", "coordinates": [108.62181604933218, 0.026011668175956883]}}, {"type": "Feature", "properties": {"norad_id": 43633, "name": "HORIZONS-3E", "group": "intelsat", "lat": -0.006289175484891363, "lon": -127.51120330351418, "alt_km": 35784.00637070858, "timestamp": "2025-12-14T22:38:40.427322+00:00", "meta": {"OBJECT_NAME": "HORIZONS-3E", "OBJECT_ID": "2018-074B", "EPOCH": "2025-12-14T05:39:42.038208", "MEAN_MOTION": 1.00269869, "ECCENTRICITY": 9.947e-05, "INCLINATION": 0.0445, "RA_OF_ASC_NODE": 188.7053, "ARG_OF_PERICENTER": 95.8686, "MEAN_ANOMALY": 52.498, "EPHEMERIS_TYPE": 0, "CLASSIFICATION_TYPE": "U", "NORAD_CAT_ID": 43633, "ELEMENT_SET_NO": 999, "REV_AT_EPOCH": 2648, "BSTAR": 0, "MEAN_MOTION_DOT": -1.3e-07, "MEAN_MOTION_DDOT": 0}, "tle": {"line1": "1 43633U 18074B   25348.23590322 -.00000013  00000+0  00000+0 0  9990", "line2": "2 43633   0.0445 188.7053 0000994  95.8686  52.4980  1.00269869 26489"}}, "geometry": {"type": "Point", "coordinates": [-127.51120330351418, -0.006289175484891363]}}, {"type": "Feature", "properties": {"norad_id": 44333, "name": "AT&T T-16", "group": "intelsat", "lat": -0.02275058187168652, "lon": -37.35366919236743, "alt_km": 35789.48408150259, "timestamp": "2025-12-14T22:38:40.427333+00:00", "meta": {"OBJECT_NAME": "AT&T T-16", "OBJECT_ID": "2019-034A", "EPOCH": "2025-12-14T07:45:38.704032", "MEAN_MOTION": 1.00269585, "ECCENTRICITY": 6.69e-05, "INCLINATION": 0.0267, "RA_OF_ASC_NODE": 71.2439, "ARG_OF_PERICENTER": 61.2679, "MEAN_ANOMALY": 326.2825, "EPHEMERIS_TYPE": 0, "CLASSIFICATION_TYPE": "U", "NORAD_CAT_ID": 44333, "ELEMENT_SET_NO": 999, "REV_AT_EPOCH": 2378, "BSTAR": 0, "MEAN_MOTION_DOT": -9.7e-07, "MEAN_MOTION_DDOT": 0}, "tle": {"line1": "1 44333U 19034A   25348.32336463 -.00000097  00000+0  00000+0 0  9991", "line2": "2 44333   0.0267  71.2439 0000669  61.2679 326.2825  1.00269585 23786"}}, "geometry": {"type": "Point", "coordinates": [-37.35366919236743, -0.02275058187168652]}}]}